NORAD_CAT_ID,OBJECT_NAME,OBJECT_TYPE,EPOCH,MEAN_MOTION,ECCENTRICITY,INCLINATION,RA_OF_ASC_NODE,ARG_OF_PERICENTER,MEAN_ANOMALY,BSTAR,MEAN_MOTION_DOT,MEAN_MOTION_DDOT,TLE_LINE0,TLE_LINE1,TLE_LINE2,SEMIMAJOR_AXIS,PERIOD,APOGEE,PERIGEE,DECAYED
52266.0,STARLINK-3739,PAYLOAD,2024-01-22 07:22:40,15.08830764,0.000179,53.2201,358.9259,76.4067,283.7124,0.00059288,9.158e-05,0.0,0 STARLINK-3739,1 52266U 22041F   24022.30741612  .00009158  00000-0  59288-3 0  9992,2 52266  53.2201 358.9259 0001790  76.4067 283.7124 15.08830764 98235,6917.909,95.438,541.012,538.535,0.0
52266.0,STARLINK-3739,PAYLOAD,2024-01-23 04:02:40,15.08852106,0.000175,53.2197,355.0592,79.3366,280.7823,-0.00025366,-4.324e-05,0.0,0 STARLINK-3739,1 52266U 22041F   24023.16852279 -.00004324  00000-0 -25366-3 0  9991,2 52266  53.2197 355.0592 0001750  79.3366 280.7823 15.08852106 98368,6917.843,95.437,540.919,538.498,0.0
52266.0,STARLINK-3739,PAYLOAD,2024-01-23 05:38:03,15.0884917,0.0001378,53.2186,354.763,94.3549,265.76,0.00021042,3.063e-05,0.0,0 STARLINK-3739,1 52266U 22041F   24023.23476354  .00003063  00000-0  21042-3 0  9999,2 52266  53.2186 354.7630 0001378  94.3549 265.7600 15.08849170 97149,6917.852,95.437,540.671,538.764,0.0
52266.0,STARLINK-3739,PAYLOAD,2024-01-24 02:18:04,15.08844239,0.0001844,53.2192,350.8975,72.7043,287.4151,4.1094e-05,3.66e-06,0.0,0 STARLINK-3739,1 52266U 22041F   24024.09588747  .00000366  00000-0  41094-4 0  9997,2 52266  53.2192 350.8975 0001844  72.7043 287.4151 15.08844239 98506,6917.867,95.437,541.008,538.457,0.0
52266.0,STARLINK-3739,PAYLOAD,2024-01-25 03:44:15,15.0884,0.0001888,53.2205,346.137,70.8724,289.2473,2.6216e-05,1.29e-06,0.0,0 STARLINK-3739,1 52266U 22041F   24025.15573326  .00000129  00000-0  26216-4 0  9998,2 52266  53.2205 346.1370 0001888  70.8724 289.2473 15.08840000 98667,6917.88,95.438,541.051,538.439,0.0
52266.0,STARLINK-3739,PAYLOAD,2024-01-26 03:35:00,15.08857861,0.0001779,53.2198,341.6872,121.6573,238.4593,0.00027539,4.1e-05,0.0,0 STARLINK-3739,1 52266U 22041F   24026.14931549  .00004100  00000-0  27539-3 0  9994,2 52266  53.2198 341.6872 0001779 121.6573 238.4593 15.08857861 98810,6917.826,95.436,540.921,538.46,0.0
52266.0,STARLINK-3739,PAYLOAD,2024-01-27 01:50:26,15.08837189,0.0001651,53.2191,337.5187,116.525,243.5911,9.1027e-05,1.161e-05,0.0,0 STARLINK-3739,1 52266U 22041F   24027.07669273  .00001161  00000-0  91027-4 0  9997,2 52266  53.2191 337.5187 0001651 116.5250 243.5911 15.08837189 98957,6917.889,95.438,540.896,538.612,0.0
52266.0,STARLINK-3739,PAYLOAD,2024-01-27 20:55:04,15.088358,0.0001492,53.2185,333.9468,111.6947,248.4204,-3.3757e-05,-8.25e-06,0.0,0 STARLINK-3739,1 52266U 22041F   24027.87158078 -.00000825  00000-0 -33757-4 0  9995,2 52266  53.2185 333.9468 0001492 111.6947 248.4204 15.08835800 97848,6917.893,95.438,540.79,538.726,0.0
52266.0,STARLINK-3739,PAYLOAD,2024-01-28 03:16:36,15.08851694,0.0001705,53.2191,332.7668,110.7968,249.3207,-4.3905e-05,-9.87e-06,0.0,0 STARLINK-3739,1 52266U 22041F   24028.13653178 -.00000987  00000-0 -43905-4 0  9991,2 52266  53.2191 332.7668 0001705 110.7968 249.3207 15.08851694 99118,6917.845,95.437,540.889,538.53,0.0
52266.0,STARLINK-3739,PAYLOAD,2024-01-28 19:10:28,15.08827758,0.0001605,53.2202,329.7925,92.1456,267.972,0.0002011,2.913e-05,0.0,0 STARLINK-3739,1 52266U 22041F   24028.79893827  .00002913  00000-0  20110-3 0  9991,2 52266  53.2202 329.7925 0001605  92.1456 267.9720 15.08827758 99218,6917.918,95.438,540.893,538.672,0.0
52266.0,STARLINK-3739,PAYLOAD,2024-01-29 04:42:47,15.08836802,0.0001398,53.2196,328.0016,89.3549,270.7603,0.00013577,1.873e-05,0.0,0 STARLINK-3739,1 52266U 22041F   24029.19637875  .00001873  00000-0  13577-3 0  9998,2 52266  53.2196 328.0016 0001398  89.3549 270.7603 15.08836802 98045,6917.89,95.438,540.722,538.788,0.0
52266.0,STARLINK-3739,PAYLOAD,2024-01-30 02:58:10,15.08843509,0.0001361,53.2193,323.8386,86.209,273.9058,5.7095e-05,6.21e-06,0.0,0 STARLINK-3739,1 52266U 22041F   24030.12373826  .00000621  00000-0  57095-4 0  9990,2 52266  53.2193 323.8386 0001361  86.2090 273.9058 15.08843509 99415,6917.87,95.437,540.676,538.793,0.0
52266.0,STARLINK-3739,PAYLOAD,2024-01-30 04:33:33,15.08846275,0.0001448,53.2194,323.539,100.2091,259.9064,6.5886e-05,7.61e-06,0.0,0 STARLINK-3739,1 52266U 22041F   24030.18997570  .00000761  00000-0  65886-4 0  9996,2 52266  53.2194 323.5390 0001448 100.2091 259.9064 15.08846275 98190,6917.861,95.437,540.728,538.725,0.0
52266.0,STARLINK-3739,PAYLOAD,2024-01-31 02:48:57,15.08846244,0.0001524,53.2193,319.3763,73.2914,286.8246,7.441e-05,8.97e-06,0.0,0 STARLINK-3739,1 52266U 22041F   24031.11733605  .00000897  00000-0  74410-4 0  9990,2 52266  53.2193 319.3763 0001524  73.2914 286.8246 15.08846244 98337,6917.861,95.437,540.781,538.672,0.0
52266.0,STARLINK-3739,PAYLOAD,2024-01-31 18:42:49,15.0884378,0.0001427,53.2191,316.407,82.681,277.4344,-3.262e-05,-8.07e-06,0.0,0 STARLINK-3739,1 52266U 22041F   24031.77974191 -.00000807  00000-0 -32620-4 0  9999,2 52266  53.2191 316.4070 0001427  82.6810 277.4344 15.08843780 99669,6917.869,95.437,540.721,538.747,0.0
52266.0,STARLINK-3739,PAYLOAD,2024-02-01 01:04:22,15.08843032,0.000147,53.2194,315.2165,79.0777,281.0381,-4.2123e-05,-9.58e-06,0.0,0 STARLINK-3739,1 52266U 22041F   24032.04470148 -.00000958  00000-0 -42123-4 0  9999,2 52266  53.2194 315.2165 0001470  79.0777 281.0381 15.08843032 98474,6917.871,95.437,540.753,538.719,0.0
52266.0,STARLINK-3739,PAYLOAD,2024-02-01 18:33:36,15.08820871,0.00015,53.2194,311.9464,98.5471,261.5691,0.00024307,3.581e-05,0.0,0 STARLINK-3739,1 52266U 22041F   24032.77334304  .00003581  00000-0  24307-3 0  9998,2 52266  53.2194 311.9464 0001500  98.5471 261.5691 15.08820871 99812,6917.939,95.439,540.842,538.766,0.0
52266.0,STARLINK-3739,PAYLOAD,2024-02-02 00:55:08,15.08849585,0.0001425,53.2193,310.7579,85.1385,274.977,-3.1031e-05,-7.82e-06,0.0,0 STARLINK-3739,1 52266U 22041F   24033.03829811 -.00000782  00000-0 -31031-4 0  9995,2 52266  53.2193 310.7579 0001425  85.1385 274.9770 15.08849585 99850,6917.851,95.437,540.702,538.73,0.0
52266.0,STARLINK-3739,PAYLOAD,2024-02-02 21:35:09,15.08838522,0.0001482,53.2184,306.8925,74.5626,285.5529,9.1349e-05,1.166e-05,0.0,0 STARLINK-3739,1 52266U 22041F   24033.89942112  .00001166  00000-0  91349-4 0  9992,2 52266  53.2184 306.8925 0001482  74.5626 285.5529 15.08838522 98751,6917.885,95.438,540.775,538.725,0.0
52266.0,STARLINK-3739,PAYLOAD,2024-02-03 03:56:42,15.08844426,0.0001491,53.2177,305.7009,82.7748,277.3414,0.00012355,1.679e-05,0.0,0 STARLINK-3739,1 52266U 22041F   24034.16437601  .00001679  00000-0  12355-3 0  9993,2 52266  53.2177 305.7009 0001491  82.7748 277.3414 15.08844426100026,6917.867,95.437,540.763,538.7,0.0
52266.0,STARLINK-3739,PAYLOAD,2024-02-03 21:25:57,15.08834166,0.0002879,53.2174,302.4246,127.7241,232.4013,4.3518e-05,4.04e-06,0.0,0 STARLINK-3739,1 52266U 22041F   24034.89302348  .00000404  00000-0  43518-4 0  9993,2 52266  53.2174 302.4246 0002879 127.7241 232.4013 15.08834166 98909,6917.898,95.438,541.755,537.772,0.0
52266.0,STARLINK-3739,PAYLOAD,2024-02-04 03:47:29,15.08834739,0.0002926,53.218,301.235,129.2636,230.8616,4.8625e-05,4.85e-06,0.0,0 STARLINK-3739,1 52266U 22041F   24035.15798344  .00000485  00000-0  48625-4 0  9991,2 52266  53.2180 301.2350 0002926 129.2636 230.8616 15.08834739100177,6917.896,95.438,541.786,537.737,0.0
52266.0,STARLINK-3739,PAYLOAD,2024-02-04 22:52:07,15.08844926,0.0001493,53.2176,297.666,107.9305,252.185,-1.4566e-06,-3.11e-06,0.0,0 STARLINK-3739,1 52266U 22041F   24035.95285979 -.00000311  00000-0 -14566-5 0  9992,2 52266  53.2176 297.6660 0001493 107.9305 252.1850 15.08844926 99069,6917.865,95.437,540.763,538.697,0.0
52266.0,STARLINK-3739,PAYLOAD,2024-02-05 03:38:16,15.08844499,0.0001545,53.2181,296.7753,110.4411,249.6747,4.6425e-06,-2.14e-06,0.0,0 STARLINK-3739,1 52266U 22041F   24036.15157956 -.00000214  00000-0  46425-5 0  9998,2 52266  53.2181 296.7753 0001545 110.4411 249.6747 15.08844499 99097,6917.867,95.437,540.8,538.663,0.0
52266.0,STARLINK-3739,PAYLOAD,2024-02-05 22:42:54,15.08840742,0.0001361,53.218,293.2071,103.1431,256.9713,2.6341e-05,1.31e-06,0.0,0 STARLINK-3739,1 52266U 22041F   24036.94646329  .00000131  00000-0  26341-4 0  9993,2 52266  53.2180 293.2071 0001361 103.1431 256.9713 15.08840742 99213,6917.878,95.438,540.685,538.802,0.0
52266.0,STARLINK-3739,PAYLOAD,2024-02-06 00:18:17,15.08843757,0.0001307,53.2179,292.9083,82.7113,277.4028,7.4158e-05,8.93e-06,0.0,0 STARLINK-3739,1 52266U 22041F   24037.01270010  .00000893  00000-0  74158-4 0  9996,2 52266  53.2179 292.9083 0001307  82.7113 277.4028 15.08843757100454,6917.869,95.437,540.638,538.83,0.0
52266.0,STARLINK-3739,PAYLOAD,2024-02-06 22:33:41,15.0884266,0.0001393,53.2173,288.7477,92.729,267.3861,1.7912e-05,-3e-08,0.0,0 STARLINK-3739,1 52266U 22041F   24037.94006364 -.00000003  00000-0  17912-4 0  9996,2 52266  53.2173 288.7477 0001393  92.7290 267.3861 15.08842660 99362,6917.872,95.437,540.701,538.774,0.0
52266.0,STARLINK-3739,PAYLOAD,2024-02-07 01:44:27,15.08848432,0.0001494,53.218,288.1504,99.9223,260.1938,5.8285e-05,6.4e-06,0.0,0 STARLINK-3739,1 52266U 22041F   24038.07253758  .00000640  00000-0  58285-4 0  9996,2 52266  53.2180 288.1504 0001494  99.9223 260.1938 15.08848432100612,6917.855,95.437,540.753,538.686,0.0
52266.0,STARLINK-3739,PAYLOAD,2024-02-07 09:41:24,15.0883366,0.0001507,53.2182,286.664,83.1465,276.9699,1.5461e-05,-4.2e-07,0.0,0 STARLINK-3739,1 52266U 22041F   24038.40375285 -.00000042  00000-0  15461-4 0  9999,2 52266  53.2182 286.6640 0001507  83.1465 276.9699 15.08833660100667,6917.9,95.438,540.807,538.722,0.0
52266.0,STARLINK-3739,PAYLOAD,2024-02-07 22:24:29,15.08831965,0.0001328,53.2166,284.2893,63.9417,296.1712,-3.7983e-05,-8.92e-06,0.0,0 STARLINK-3739,1 52266U 22041F   24038.93367604 -.00000892  00000-0 -37983-4 0  9990,2 52266  53.2166 284.2893 0001328  63.9417 296.1712 15.08831965 99514,6917.905,95.438,540.689,538.851,0.0
